GLOBALSTAR M063         
1 26081U 00008A   24226.23380524 -.00000044  00000+0  56700-3 0  9997
2 26081  51.9924 202.6022 0004527  79.9690 293.6994 11.86159715121090
GLOBALSTAR M062         
1 26082U 00008B   24225.87977240 -.00000068  00000+0  21747-3 0  9993
2 26082  51.9844 282.4094 0007355 172.9430 358.6280 12.43442046458263
GLOBALSTAR M060         
1 26083U 00008C   24225.89738785  .00000062  00000+0  15239-2 0  9996
2 26083  51.9993 198.7464 0003265 222.0485 153.4615 12.17638981114811
GLOBALSTAR M064         
1 26084U 00008D   24225.91728807 -.00000061  00000+0  31634-3 0  9992
2 26084  52.0047 305.9031 0001798 171.6250 188.4613 11.88521029130448
GLOBALSTAR M065         
1 31571U 07020A   24225.88397815 -.00000105  00000+0 -67789-5 0  9999
2 31571  51.9896  84.6203 0010170 348.4881  23.4565 12.61975223794480
GLOBALSTAR M069         
1 31573U 07020C   24225.89910612 -.00000042  00000+0  34715-3 0  9998
2 31573  51.9959  40.3290 0001052  92.9530  73.4580 12.62245844795616
GLOBALSTAR M072         
1 31574U 07020D   24226.21144125 -.00000073  00000+0  17413-3 0  9994
2 31574  52.0078 135.3698 0000905  29.4967 135.0517 12.62261724794083
GLOBALSTAR M071         
1 31576U 07020F   24226.24325943 -.00000070  00000+0  18781-3 0  9994
2 31576  52.0074  44.4919 0001357 111.7614  58.8278 12.62272268795579
